[{"OBJECT_NAME":"STARLINK-31968","OBJECT_ID":"2024-106F","EPOCH":"2026-03-09T22:27:55.725696","MEAN_MOTION":15.27564726,"ECCENTRICITY":0.00011388,"INCLINATION":43.0006,"RA_OF_ASC_NODE":330.8642,"ARG_OF_PERICENTER":259.8093,"MEAN_ANOMALY":100.263,"EPHEMERIS_TYPE":0,"CLASSIFICATION_TYPE":"U","NORAD_CAT_ID":59927,"ELEMENT_SET_NO":999,"REV_AT_EPOCH":10061,"BSTAR":-2.2937229e-5,"MEAN_MOTION_DOT":-8.93e-6,"MEAN_MOTION_DDOT":0},{"OBJECT_NAME":"PELICAN-6","OBJECT_ID":"2025-276AP","EPOCH":"2026-03-09T16:58:12.890496","MEAN_MOTION":15.2637798,"ECCENTRICITY":0.0003569,"INCLINATION":97.4276,"RA_OF_ASC_NODE":144.2072,"ARG_OF_PERICENTER":157.8575,"MEAN_ANOMALY":202.2819,"EPHEMERIS_TYPE":0,"CLASSIFICATION_TYPE":"U","NORAD_CAT_ID":66703,"ELEMENT_SET_NO":999,"REV_AT_EPOCH":1533,"BSTAR":0.0029725783,"MEAN_MOTION_DOT":0.00077979,"MEAN_MOTION_DDOT":0}]
